[
    {
        "Altitude(m)": 703889.7157591741,
        "Argument of Periapsis(deg)": 0.007973084830638947,
        "Eccentricity": 0.0,
        "Inclination(deg)": 45.0,
        "Latitude(deg)": 27.61893760797334,
        "Longitude(deg)": -179.1736175710951,
        "Mean Anomaly(deg)": 40.800551653236596,
        "RAAN(deg)": 249.99247364097928,
        "Satellite Name": "Constellation 1 1102",
        "Satellite Number": 1102,
        "Semi-Major Axis(m)": 7083131.272910544,
        "Time(s)": 133
    },
    {
        "Altitude(m)": 703895.090825891,
        "Argument of Periapsis(deg)": 0.008033032836884352,
        "Eccentricity": 0.0,
        "Inclination(deg)": 45.0,
        "Latitude(deg)": 27.655766775358913,
        "Longitude(deg)": -179.12317707345127,
        "Mean Anomaly(deg)": 40.86125279348648,
        "RAAN(deg)": 249.9924170518137,
        "Satellite Name": "Constellation 1 1102",
        "Satellite Number": 1102,
        "Semi-Major Axis(m)": 7083131.272910544,
        "Time(s)": 134
    },
    {
        "Altitude(m)": 703900.4727536849,
        "Argument of Periapsis(deg)": 0.008092980843129758,
        "Eccentricity": 0.0,
        "Inclination(deg)": 45.0,
        "Latitude(deg)": 27.69257427883952,
        "Longitude(deg)": -179.07270003618586,
        "Mean Anomaly(deg)": 40.92195393373636,
        "RAAN(deg)": 249.99236046264815,
        "Satellite Name": "Constellation 1 1102",
        "Satellite Number": 1102,
        "Semi-Major Axis(m)": 7083131.272910544,
        "Time(s)": 135
    },
    {
        "Altitude(m)": 703905.8615039202,
        "Argument of Periapsis(deg)": 0.008152928849375162,
        "Eccentricity": 0.0,
        "Inclination(deg)": 45.0,
        "Latitude(deg)": 27.72936007060901,
        "Longitude(deg)": -179.02218639916882,
        "Mean Anomaly(deg)": 40.9826550739863,
        "RAAN(deg)": 249.99230387348257,
        "Satellite Name": "Constellation 1 1102",
        "Satellite Number": 1102,
        "Semi-Major Axis(m)": 7083131.272910544,
        "Time(s)": 136
    },
    {
        "Altitude(m)": 703911.2570379536,
        "Argument of Periapsis(deg)": 0.008212876855620568,
        "Eccentricity": 0.0,
        "Inclination(deg)": 45.0,
        "Latitude(deg)": 27.766124102791714,
        "Longitude(deg)": -178.9716361022918,
        "Mean Anomaly(deg)": 41.04335621423619,
        "RAAN(deg)": 249.992247284317,
        "Satellite Name": "Constellation 1 1102",
        "Satellite Number": 1102,
        "Semi-Major Axis(m)": 7083131.272910544,
        "Time(s)": 137
    },
    {
        "Altitude(m)": 703916.6593171265,
        "Argument of Periapsis(deg)": 0.008272824861865974,
        "Eccentricity": 0.0,
        "Inclination(deg)": 45.0,
        "Latitude(deg)": 27.8028663274427,
        "Longitude(deg)": -178.92104908546875,
        "Mean Anomaly(deg)": 41.10405735448607,
        "RAAN(deg)": 249.9921906951514,
        "Satellite Name": "Constellation 1 1102",
        "Satellite Number": 1102,
        "Semi-Major Axis(m)": 7083131.272910544,
        "Time(s)": 138
    },
    {
        "Altitude(m)": 703922.0683027604,
        "Argument of Periapsis(deg)": 0.00833277286811138,
        "Eccentricity": 0.0,
        "Inclination(deg)": 45.0,
        "Latitude(deg)": 27.839586696547457,
        "Longitude(deg)": -178.87042528863606,
        "Mean Anomaly(deg)": 41.16475849473601,
        "RAAN(deg)": 249.99213410598585,
        "Satellite Name": "Constellation 1 1102",
        "Satellite Number": 1102,
        "Semi-Major Axis(m)": 7083131.272910544,
        "Time(s)": 139
    },
    {
        "Altitude(m)": 703927.4839561549,
        "Argument of Periapsis(deg)": 0.008392720874356788,
        "Eccentricity": 0.0,
        "Inclination(deg)": 45.0,
        "Latitude(deg)": 27.87628516202199,
        "Longitude(deg)": -178.81976465175325,
        "Mean Anomaly(deg)": 41.225459634985846,
        "RAAN(deg)": 249.9920775168203,
        "Satellite Name": "Constellation 1 1102",
        "Satellite Number": 1102,
        "Semi-Major Axis(m)": 7083131.272910544,
        "Time(s)": 140
    },
    {
        "Altitude(m)": 703932.9062386047,
        "Argument of Periapsis(deg)": 0.008452668880602192,
        "Eccentricity": 0.0,
        "Inclination(deg)": 45.0,
        "Latitude(deg)": 27.91296167571304,
        "Longitude(deg)": -178.76906728290035,
        "Mean Anomaly(deg)": 41.286160775235786,
        "RAAN(deg)": 249.99202092765475,
        "Satellite Name": "Constellation 1 1102",
        "Satellite Number": 1102,
        "Semi-Major Axis(m)": 7083131.272910544,
        "Time(s)": 141
    },
    {
        "Altitude(m)": 703938.3351113767,
        "Argument of Periapsis(deg)": 0.008512616886847598,
        "Eccentricity": 0.0,
        "Inclination(deg)": 45.0,
        "Latitude(deg)": 27.94961618939658,
        "Longitude(deg)": -178.7183327858906,
        "Mean Anomaly(deg)": 41.34686191548567,
        "RAAN(deg)": 249.99196433848914,
        "Satellite Name": "Constellation 1 1102",
        "Satellite Number": 1102,
        "Semi-Major Axis(m)": 7083131.272910544,
        "Time(s)": 142
    },
    {
        "Altitude(m)": 703943.7705357359,
        "Argument of Periapsis(deg)": 0.008572564893093004,
        "Eccentricity": 0.0,
        "Inclination(deg)": 45.0,
        "Latitude(deg)": 27.986248654779775,
        "Longitude(deg)": -178.66756126885272,
        "Mean Anomaly(deg)": 41.40756305573556,
        "RAAN(deg)": 249.99190774932356,
        "Satellite Name": "Constellation 1 1102",
        "Satellite Number": 1102,
        "Semi-Major Axis(m)": 7083131.272910544,
        "Time(s)": 143
    },
    {
        "Altitude(m)": 703949.2124729115,
        "Argument of Periapsis(deg)": 0.008632512899338408,
        "Eccentricity": 0.0,
        "Inclination(deg)": 45.0,
        "Latitude(deg)": 28.02285902349979,
        "Longitude(deg)": -178.6167526718433,
        "Mean Anomaly(deg)": 41.46826419598545,
        "RAAN(deg)": 249.991851160158,
        "Satellite Name": "Constellation 1 1102",
        "Satellite Number": 1102,
        "Semi-Major Axis(m)": 7083131.272910544,
        "Time(s)": 144
    },
    {
        "Altitude(m)": 703954.6608841397,
        "Argument of Periapsis(deg)": 0.008692460905583814,
        "Eccentricity": 0.0,
        "Inclination(deg)": 45.0,
        "Latitude(deg)": 28.05944724712373,
        "Longitude(deg)": -178.5659069349448,
        "Mean Anomaly(deg)": 41.52896533623533,
        "RAAN(deg)": 249.99179457099245,
        "Satellite Name": "Constellation 1 1102",
        "Satellite Number": 1102,
        "Semi-Major Axis(m)": 7083131.272910544,
        "Time(s)": 145
    },
    {
        "Altitude(m)": 703960.1157306202,
        "Argument of Periapsis(deg)": 0.00875240891182922,
        "Eccentricity": 0.0,
        "Inclination(deg)": 45.0,
        "Latitude(deg)": 28.096013277148813,
        "Longitude(deg)": -178.51502399826543,
        "Mean Anomaly(deg)": 41.58966647648527,
        "RAAN(deg)": 249.9917379818269,
        "Satellite Name": "Constellation 1 1102",
        "Satellite Number": 1102,
        "Semi-Major Axis(m)": 7083131.272910544,
        "Time(s)": 146
    },
    {
        "Altitude(m)": 703965.5769735599,
        "Argument of Periapsis(deg)": 0.008812356918074627,
        "Eccentricity": 0.0,
        "Inclination(deg)": 45.0,
        "Latitude(deg)": 28.132557065002032,
        "Longitude(deg)": -178.46410380194035,
        "Mean Anomaly(deg)": 41.65036761673515,
        "RAAN(deg)": 249.99168139266126,
        "Satellite Name": "Constellation 1 1102",
        "Satellite Number": 1102,
        "Semi-Major Axis(m)": 7083131.272910544,
        "Time(s)": 147
    },
    {
        "Altitude(m)": 703971.0445741289,
        "Argument of Periapsis(deg)": 0.008872304924320031,
        "Eccentricity": 0.0,
        "Inclination(deg)": 45.0,
        "Latitude(deg)": 28.16907856204085,
        "Longitude(deg)": -178.41314645422835,
        "Mean Anomaly(deg)": 41.71106875698504,
        "RAAN(deg)": 249.9916248034957,
        "Satellite Name": "Constellation 1 1102",
        "Satellite Number": 1102,
        "Semi-Major Axis(m)": 7083131.272910544,
        "Time(s)": 148
    },
    {
        "Altitude(m)": 703976.5184934954,
        "Argument of Periapsis(deg)": 0.008932252930565437,
        "Eccentricity": 0.0,
        "Inclination(deg)": 45.0,
        "Latitude(deg)": 28.205577719551396,
        "Longitude(deg)": -178.3621515591249,
        "Mean Anomaly(deg)": 41.771769897234925,
        "RAAN(deg)": 249.99156821433016,
        "Satellite Name": "Constellation 1 1102",
        "Satellite Number": 1102,
        "Semi-Major Axis(m)": 7083131.272910544,
        "Time(s)": 149
    },
    {
        "Altitude(m)": 703981.9986928131,
        "Argument of Periapsis(deg)": 0.008992200936810843,
        "Eccentricity": 0.0,
        "Inclination(deg)": 45.0,
        "Latitude(deg)": 28.24205448875059,
        "Longitude(deg)": -178.31111922494466,
        "Mean Anomaly(deg)": 41.832471037484865,
        "RAAN(deg)": 249.9915116251646,
        "Satellite Name": "Constellation 1 1102",
        "Satellite Number": 1102,
        "Semi-Major Axis(m)": 7083131.272910544,
        "Time(s)": 150
    },
    {
        "Altitude(m)": 703987.4851332107,
        "Argument of Periapsis(deg)": 0.009052148943056249,
        "Eccentricity": 0.0,
        "Inclination(deg)": 45.0,
        "Latitude(deg)": 28.27850882078467,
        "Longitude(deg)": -178.26004939193385,
        "Mean Anomaly(deg)": 41.893172177734755,
        "RAAN(deg)": 249.99145503599905,
        "Satellite Name": "Constellation 1 1102",
        "Satellite Number": 1102,
        "Semi-Major Axis(m)": 7083131.272910544,
        "Time(s)": 151
    }
]